[{"OBJECT_NAME":"STARLINK-3674","OBJECT_ID":"2022-025V","EPOCH":"2026-03-09T06:32:05.700480","MEAN_MOTION":15.30177312,"ECCENTRICITY":0.00014249,"INCLINATION":53.1603,"RA_OF_ASC_NODE":25.7727,"ARG_OF_PERICENTER":85.3718,"MEAN_ANOMALY":274.7445,"EPHEMERIS_TYPE":0,"CLASSIFICATION_TYPE":"U","NORAD_CAT_ID":51975,"ELEMENT_SET_NO":999,"REV_AT_EPOCH":22096,"BSTAR":7.3980431e-5,"MEAN_MOTION_DOT":1.831e-5,"MEAN_MOTION_DDOT":0},{"OBJECT_NAME":"ORBITER SN3","OBJECT_ID":"2023-084AE","EPOCH":"2026-03-09T23:12:21.976128","MEAN_MOTION":15.32943891,"ECCENTRICITY":0.00075889,"INCLINATION":97.61,"RA_OF_ASC_NODE":206.6768,"ARG_OF_PERICENTER":331.7947,"MEAN_ANOMALY":28.2883,"EPHEMERIS_TYPE":0,"CLASSIFICATION_TYPE":"U","NORAD_CAT_ID":56960,"ELEMENT_SET_NO":999,"REV_AT_EPOCH":15228,"BSTAR":0.00032835432,"MEAN_MOTION_DOT":0.00010378,"MEAN_MOTION_DDOT":0}]
